COSMOS 2251 DEB         
1 36625U 93036BEP 17345.61414531  .00000674  00000-0  12142-3 0  9998
2 36625  73.8827 304.8159 0065643 214.5485 268.2045 14.67445765251365
